OBJECT_NAME,OBJECT_ID,EPOCH,MEAN_MOTION,ECCENTRICITY,INCLINATION,RA_OF_ASC_NODE,ARG_OF_PERICENTER,MEAN_ANOMALY,EPHEMERIS_TYPE,CLASSIFICATION_TYPE,NORAD_CAT_ID,ELEMENT_SET_NO,REV_AT_EPOCH,BSTAR,MEAN_MOTION_DOT,MEAN_MOTION_DDOT
ONEWEB-0538,2023-043B,2026-06-16T04:48:26.391744,13.16595516,.0002147,87.9100,228.9699,105.0537,255.0831,0,U,56047,999,15884,.72804E-4,.41E-6,0
ONEWEB-0546,2023-043C,2026-06-16T04:30:12.121056,13.16595838,.0002746,87.9102,228.9723,96.6733,263.4710,0,U,56048,999,15883,.18106E-3,.82E-6,0
ONEWEB-0547,2023-043D,2026-06-16T04:31:15.713184,13.21826411,.0001955,87.9261,244.1729,103.9630,256.1722,0,U,56049,999,15809,.22084E-3,.104E-5,0
ONEWEB-0548,2023-043E,2026-06-15T16:19:28.058304,13.16596159,.00020097,87.9096,229.0695,85.0042,275.1318,0,U,56050,999,15876,-.11694831E-4,.8E-7,0
ONEWEB-0549,2023-043F,2026-06-16T04:22:47.458272,13.21825804,.0002094,87.9253,244.1806,110.0322,250.1037,0,U,56051,999,15809,.15848E-3,.78E-6,0
ONEWEB-0550,2023-043G,2026-06-16T04:03:25.659072,13.21826031,.0001915,87.9257,244.1809,93.2039,266.9314,0,U,56052,999,15809,.33082E-3,.15E-5,0
ONEWEB-0551,2023-043H,2026-06-16T03:59:44.347200,13.15549358,.0001918,87.9002,259.4297,111.4545,248.6790,0,U,56053,999,15626,.51829E-3,.208E-5,0
ONEWEB-0552,2023-043J,2026-06-16T03:56:07.185120,13.21828429,.0001842,87.9251,244.1872,100.9102,259.2239,0,U,56054,999,15809,.31817E-3,.144E-5,0
ONEWEB-0553,2023-043K,2026-06-15T15:53:16.142496,13.16594274,.00024469,87.9097,229.0774,94.4199,265.7212,0,U,56055,999,15877,-.1127706E-3,-.3E-6,0
ONEWEB-0554,2023-043L,2026-06-16T04:21:05.812128,13.16595144,.0001977,87.9097,228.9830,82.6234,277.5121,0,U,56056,999,15882,.21599E-3,.95E-6,0
ONEWEB-0555,2023-043M,2026-06-16T03:26:19.976064,13.16596394,.0002642,87.9100,228.9789,95.4087,264.7345,0,U,56057,999,15882,.20034E-3,.89E-6,0
ONEWEB-0557,2023-043N,2026-06-16T03:46:52.581792,13.16594741,.0002778,87.9100,228.9860,72.9267,287.2167,0,U,56058,999,15882,.36527E-3,.152E-5,0
ONEWEB-0558,2023-043P,2026-06-16T03:46:25.923072,13.21827813,.0002166,87.9253,244.1835,107.5837,252.5534,0,U,56059,999,15810,.25233E-3,.117E-5,0
ONEWEB-0559,2023-043Q,2026-06-16T03:29:28.252032,13.21826568,.0001903,87.9257,244.1806,104.5214,255.6131,0,U,56060,999,15811,-.10686E-3,-.31E-6,0
ONEWEB-0566,2023-043R,2026-06-15T21:52:47.983008,13.21827299,.0001868,87.9256,244.2254,108.1652,251.9685,0,U,56061,999,15806,-.98047E-4,-.27E-6,0
ONEWEB-0568,2023-043S,2026-06-16T04:11:57.852960,13.16595305,.0002353,87.9100,228.9723,95.8035,264.3364,0,U,56062,999,15884,.14168E-3,.67E-6,0
ONEWEB-0574,2023-043T,2026-06-16T04:59:06.645120,13.21824999,.0002049,87.9265,244.1693,93.5456,266.5913,0,U,56063,999,15814,.14826E-3,.74E-6,0
ONEWEB-0575,2023-043U,2026-06-16T04:02:50.811360,13.16594824,.000228,87.9098,228.9700,87.8752,272.2640,0,U,56064,999,15883,.40511E-3,.168E-5,0
ONEWEB-0576,2023-043V,2026-06-16T03:35:28.648032,13.16594391,.0002141,87.9101,228.9815,91.9236,268.2140,0,U,56065,999,15882,.41396E-3,.171E-5,0
ONEWEB-0577,2023-043W,2026-06-16T03:44:36.373056,13.16594149,.0002228,87.9100,228.9779,77.2160,282.9220,0,U,56066,999,15885,.4452E-3,.183E-5,0
ONEWEB-0578,2023-043X,2026-06-16T04:39:44.483040,13.21824610,.0002337,87.9259,244.1701,97.3508,262.7892,0,U,56067,999,15810,.51659E-4,.34E-6,0
ONEWEB-0579,2023-043Y,2026-06-16T04:27:38.767968,13.21826578,.0001757,87.9263,244.1686,101.2624,258.8708,0,U,56068,999,15811,.13417E-3,.68E-6,0
ONEWEB-0581,2023-043Z,2026-06-16T03:53:42.260352,13.16592893,.0002065,87.9100,228.9879,81.5572,278.5793,0,U,56069,999,15882,.4041E-3,.167E-5,0
ONEWEB-0609,2023-043AA,2026-06-16T04:37:23.460096,13.15549662,.0002017,87.9001,259.4096,102.5282,257.6074,0,U,56070,999,15630,-.49124E-4,-.6E-7,0
ONEWEB-0613,2023-043AB,2026-06-16T04:33:57.367584,13.15549996,.0001755,87.9001,259.4225,106.3641,253.7683,0,U,56071,999,15630,-.24507E-4,.4E-7,0
ONEWEB-0630,2023-043AC,2026-06-16T04:27:06.791328,13.15547125,.0001769,87.9006,259.3950,104.7594,255.3732,0,U,56072,999,15629,.20073E-3,.88E-6,0
ONEWEB-0632,2023-043AD,2026-06-16T04:20:17.301120,13.15549178,.0001922,87.9004,259.4138,95.5100,264.6250,0,U,56073,999,15629,.31731E-3,.132E-5,0
ONEWEB-0633,2023-043AE,2026-06-16T04:11:08.680128,13.15547352,.0001808,87.9011,259.3905,112.7208,247.4113,0,U,56074,999,15627,.44871E-3,.182E-5,0
ONEWEB-0634,2023-043AF,2026-06-16T03:50:37.667616,13.15548386,.0002282,87.9002,259.4338,104.1546,255.9838,0,U,56075,999,15626,.39641E-3,.162E-5,0
ONEWEB-0635,2023-043AG,2026-06-16T00:04:42.559104,13.15550101,.000194,87.9010,259.4275,92.9492,267.1860,0,U,56076,999,15627,.34541E-3,.143E-5,0
