ONEWEB-0538             
1 56047U 23043B   26167.20030546  .00000041  00000+0  72804-4 0  9995
2 56047  87.9100 228.9699 0002147 105.0537 255.0831 13.16595516158841
ONEWEB-0546             
1 56048U 23043C   26167.18764029  .00000082  00000+0  18106-3 0  9992
2 56048  87.9102 228.9723 0002746  96.6733 263.4710 13.16595838158835
ONEWEB-0547             
1 56049U 23043D   26167.18837631  .00000104  00000+0  22084-3 0  9998
2 56049  87.9261 244.1729 0001955 103.9630 256.1722 13.21826411158097
ONEWEB-0548             
1 56050U 23043E   26166.68018586  .00000008  00000+0 -11695-4 0  9995
2 56050  87.9096 229.0695 0002009  85.0042 275.1318 13.16596159158760
ONEWEB-0549             
1 56051U 23043F   26167.18249373  .00000078  00000+0  15848-3 0  9991
2 56051  87.9253 244.1806 0002094 110.0322 250.1037 13.21825804158097
ONEWEB-0550             
1 56052U 23043G   26167.16904698  .00000150  00000+0  33082-3 0  9999
2 56052  87.9257 244.1809 0001915  93.2039 266.9314 13.21826031158099
ONEWEB-0551             
1 56053U 23043H   26167.16648550  .00000208  00000+0  51829-3 0  9995
2 56053  87.9002 259.4297 0001918 111.4545 248.6790 13.15549358156265
ONEWEB-0552             
1 56054U 23043J   26167.16397205  .00000144  00000+0  31817-3 0  9998
2 56054  87.9251 244.1872 0001842 100.9102 259.2239 13.21828429158095
ONEWEB-0553             
1 56055U 23043K   26166.66199239 -.00000030  00000+0 -11277-3 0  9994
2 56055  87.9097 229.0774 0002446  94.4199 265.7212 13.16594274158771
ONEWEB-0554             
1 56056U 23043L   26167.18131727  .00000095  00000+0  21599-3 0  9998
2 56056  87.9097 228.9830 0001977  82.6234 277.5121 13.16595144158823
ONEWEB-0555             
1 56057U 23043M   26167.14328676  .00000089  00000+0  20034-3 0  9992
2 56057  87.9100 228.9789 0002642  95.4087 264.7345 13.16596394158824
ONEWEB-0557             
1 56058U 23043N   26167.15755303  .00000152  00000+0  36527-3 0  9990
2 56058  87.9100 228.9860 0002778  72.9267 287.2167 13.16594741158821
ONEWEB-0558             
1 56059U 23043P   26167.15724448  .00000117  00000+0  25233-3 0  9990
2 56059  87.9253 244.1835 0002166 107.5837 252.5534 13.21827813158101
ONEWEB-0559             
1 56060U 23043Q   26167.14546588 -.00000031  00000+0 -10686-3 0  9991
2 56060  87.9257 244.1806 0001903 104.5214 255.6131 13.21826568158113
ONEWEB-0566             
1 56061U 23043R   26166.91166647 -.00000027  00000+0 -98047-4 0  9993
2 56061  87.9256 244.2254 0001868 108.1652 251.9685 13.21827299158066
ONEWEB-0568             
1 56062U 23043S   26167.17497515  .00000067  00000+0  14168-3 0  9997
2 56062  87.9100 228.9723 0002353  95.8035 264.3364 13.16595305158844
ONEWEB-0574             
1 56063U 23043T   26167.20771580  .00000074  00000+0  14826-3 0  9998
2 56063  87.9265 244.1693 0002049  93.5456 266.5913 13.21824999158144
ONEWEB-0575             
1 56064U 23043U   26167.16864365  .00000168  00000+0  40511-3 0  9992
2 56064  87.9098 228.9700 0002280  87.8752 272.2640 13.16594824158832
ONEWEB-0576             
1 56065U 23043V   26167.14963713  .00000171  00000+0  41396-3 0  9994
2 56065  87.9101 228.9815 0002141  91.9236 268.2140 13.16594391158822
ONEWEB-0577             
1 56066U 23043W   26167.15597654  .00000183  00000+0  44520-3 0  9998
2 56066  87.9100 228.9779 0002228  77.2160 282.9220 13.16594149158856
ONEWEB-0578             
1 56067U 23043X   26167.19426485  .00000034  00000+0  51659-4 0  9993
2 56067  87.9259 244.1701 0002337  97.3508 262.7892 13.21824610158101
ONEWEB-0579             
1 56068U 23043Y   26167.18586537  .00000068  00000+0  13417-3 0  9994
2 56068  87.9263 244.1686 0001757 101.2624 258.8708 13.21826578158116
ONEWEB-0581             
1 56069U 23043Z   26167.16229468  .00000167  00000+0  40410-3 0  9993
2 56069  87.9100 228.9879 0002065  81.5572 278.5793 13.16592893158821
ONEWEB-0609             
1 56070U 23043AA  26167.19263264 -.00000006  00000+0 -49124-4 0  9996
2 56070  87.9001 259.4096 0002017 102.5282 257.6074 13.15549662156308
ONEWEB-0613             
1 56071U 23043AB  26167.19024731  .00000004  00000+0 -24507-4 0  9996
2 56071  87.9001 259.4225 0001755 106.3641 253.7683 13.15549996156305
ONEWEB-0630             
1 56072U 23043AC  26167.18549527  .00000088  00000+0  20073-3 0  9995
2 56072  87.9006 259.3950 0001769 104.7594 255.3732 13.15547125156292
ONEWEB-0632             
1 56073U 23043AD  26167.18075580  .00000132  00000+0  31731-3 0  9992
2 56073  87.9004 259.4138 0001922  95.5100 264.6250 13.15549178156299
ONEWEB-0633             
1 56074U 23043AE  26167.17440602  .00000182  00000+0  44871-3 0  9997
2 56074  87.9011 259.3905 0001808 112.7208 247.4113 13.15547352156270
ONEWEB-0634             
1 56075U 23043AF  26167.16015819  .00000162  00000+0  39641-3 0  9992
2 56075  87.9002 259.4338 0002282 104.1546 255.9838 13.15548386156264
ONEWEB-0635             
1 56076U 23043AG  26167.00327036  .00000143  00000+0  34541-3 0  9996
2 56076  87.9010 259.4275 0001940  92.9492 267.1860 13.15550101156277
